GOES 18                 
1 51850U 22021A   26087.73156084  .00000077  00000+0  00000+0 0  9995
2 51850   0.0455  18.7374 0000438  36.9621 256.7912  1.00272342  5780
GOES 19                 
1 60133U 24119A   26087.60112693 -.00000268  00000+0  00000+0 0  9996
2 60133   0.0476  15.5541 0000818  25.4447 286.2025  1.00270005  6158
